{"type": "FeatureCollection", "features": [ {"type": "Feature", "properties": {"norad_id": 66860, "name": "STARLINK-35987", "group": "last-30-days", "lat": 40.135823414742184, "lon": 147.8730271073065, "alt_km": 409.57598309141486, "timestamp": "2025-12-27T14:26:29.243847+00:00", "meta": {"OBJECT_NAME": "STARLINK-35987", "OBJECT_ID": "2025-281N", "EPOCH": "2025-12-27T06:00:02.000160", "MEAN_MOTION": 15.50584639, "ECCENTRICITY": 0.00012968, "INCLINATION": 43.0001, "RA_OF_ASC_NODE": 34.7282, "ARG_OF_PERICENTER": 267.5093, "MEAN_ANOMALY": 35.8902, "EPHEMERIS_TYPE": 0, "CLASSIFICATION_TYPE": "U", "NORAD_CAT_ID": 66860, "ELEMENT_SET_NO": 999, "REV_AT_EPOCH": 372, "BSTAR": -0.00094726671, "MEAN_MOTION_DOT": -0.00055531, "MEAN_MOTION_DDOT": 0}, "tle": {"line1": "1 66860U 25281N   25361.25002315 -.00055531  00000+0 -94727-3 0  9991", "line2": "2 66860  43.0001  34.7282 0001296 267.5093  35.8902 15.50584639  3727"}}, "geometry": {"type": "Point", "coordinates": [147.8730271073065, 40.135823414742184]}}, {"type": "Feature", "properties": {"norad_id": 66861, "name": "STARLINK-35991", "group": "last-30-days", "lat": 41.578662806844854, "lon": 140.49949663556487, "alt_km": 409.0299067840733, "timestamp": "2025-12-27T14:26:29.243857+00:00", "meta": {"OBJECT_NAME": "STARLINK-35991", "OBJECT_ID": "2025-281P", "EPOCH": "2025-12-27T06:00:02.000160", "MEAN_MOTION": 15.50513375, "ECCENTRICITY": 8.479e-05, "INCLINATION": 43.0001, "RA_OF_ASC_NODE": 34.7435, "ARG_OF_PERICENTER": 264.4541, "MEAN_ANOMALY": 33.2185, "EPHEMERIS_TYPE": 0, "CLASSIFICATION_TYPE": "U", "NORAD_CAT_ID": 66861, "ELEMENT_SET_NO": 999, "REV_AT_EPOCH": 371, "BSTAR": 0.001093003, "MEAN_MOTION_DOT": 0.00064156, "MEAN_MOTION_DDOT": 0}, "tle": {"line1": "1 66861U 25281P   25361.25002315  .00064156  00000+0  10930-2 0  9996", "line2": "2 66861  43.0001  34.7435 0000847 264.4541  33.2185 15.50513375  3716"}}, "geometry": {"type": "Point", "coordinates": [140.49949663556487, 41.578662806844854]}}, {"type": "Feature", "properties": {"norad_id": 66862, "name": "STARLINK-35974", "group": "last-30-days", "lat": 41.949595019441155, "lon": 137.99330848427587, "alt_km": 409.0853611296079, "timestamp": "2025-12-27T14:26:29.243867+00:00", "meta": {"OBJECT_NAME": "STARLINK-35974", "OBJECT_ID": "2025-281Q", "EPOCH": "2025-12-27T06:00:02.000160", "MEAN_MOTION": 15.5062986, "ECCENTRICITY": 9.395e-05, "INCLINATION": 43.0002, "RA_OF_ASC_NODE": 34.7475, "ARG_OF_PERICENTER": 262.1595, "MEAN_ANOMALY": 33.5439, "EPHEMERIS_TYPE": 0, "CLASSIFICATION_TYPE": "U", "NORAD_CAT_ID": 66862, "ELEMENT_SET_NO": 999, "REV_AT_EPOCH": 361, "BSTAR": -0.0021237373, "MEAN_MOTION_DOT": -0.00123208, "MEAN_MOTION_DDOT": 0}, "tle": {"line1": "1 66862U 25281Q   25361.25002315 -.00123208  00000+0 -21237-2 0  9995", "line2": "2 66862  43.0002  34.7475 0000939 262.1595  33.5439 15.50629860  3619"}}, "geometry": {"type": "Point", "coordinates": [137.99330848427587, 41.949595019441155]}}, {"type": "Feature", "properties": {"norad_id": 66863, "name": "STARLINK-36134", "group": "last-30-days", "lat": 41.150146842208684, "lon": 142.99391135220935, "alt_km": 409.08495688356015, "timestamp": "2025-12-27T14:26:29.243877+00:00", "meta": {"OBJECT_NAME": "STARLINK-36134", "OBJECT_ID": "2025-281R", "EPOCH": "2025-12-27T06:00:02.000160", "MEAN_MOTION": 15.50506501, "ECCENTRICITY": 8.57e-05, "INCLINATION": 43, "RA_OF_ASC_NODE": 34.7387, "ARG_OF_PERICENTER": 271.4309, "MEAN_ANOMALY": 28.1605, "EPHEMERIS_TYPE": 0, "CLASSIFICATION_TYPE": "U", "NORAD_CAT_ID": 66863, "ELEMENT_SET_NO": 999, "REV_AT_EPOCH": 371, "BSTAR": 0.0014933331, "MEAN_MOTION_DOT": 0.00088027, "MEAN_MOTION_DDOT": 0}, "tle": {"line1": "1 66863U 25281R   25361.25002315  .00088027  00000+0  14933-2 0  9998", "line2": "2 66863  43.0000  34.7387 0000857 271.4309  28.1605 15.50506501  3717"}}, "geometry": {"type": "Point", "coordinates": [142.99391135220935, 41.150146842208684]}}, {"type": "Feature", "properties": {"norad_id": 66864, "name": "STARLINK-36070", "group": "last-30-days", "lat": 40.669476293290046, "lon": 145.44866956332334, "alt_km": 409.20365710006627, "timestamp": "2025-12-27T14:26:29.243887+00:00", "meta": {"OBJECT_NAME": "STARLINK-36070", "OBJECT_ID": "2025-281S", "EPOCH": "2025-12-27T06:00:02.000160", "MEAN_MOTION": 15.50730349, "ECCENTRICITY": 0.00010314, "INCLINATION": 43.0001, "RA_OF_ASC_NODE": 34.7335, "ARG_OF_PERICENTER": 250.7195, "MEAN_ANOMALY": 50.6566, "EPHEMERIS_TYPE": 0, "CLASSIFICATION_TYPE": "U", "NORAD_CAT_ID": 66864, "ELEMENT_SET_NO": 999, "REV_AT_EPOCH": 375, "BSTAR": -0.0040949421, "MEAN_MOTION_DOT": -0.00234765, "MEAN_MOTION_DDOT": 0}, "tle": {"line1": "1 66864U 25281S   25361.25002315 -.00234765  00000+0 -40949-2 0  9999", "line2": "2 66864  43.0001  34.7335 0001031 250.7195  50.6566 15.50730349  3759"}}, "geometry": {"type": "Point", "coordinates": [145.44866956332334, 40.669476293290046]}}, {"type": "Feature", "properties": {"norad_id": 66865, "name": "STARLINK-36117", "group": "last-30-days", "lat": 39.55300081574302, "lon": 150.25530794485252, "alt_km": 409.5677014981893, "timestamp": "2025-12-27T14:26:29.243897+00:00", "meta": {"OBJECT_NAME": "STARLINK-36117", "OBJECT_ID": "2025-281T", "EPOCH": "2025-12-27T06:00:02.000160", "MEAN_MOTION": 15.50514015, "ECCENTRICITY": 0.00011599, "INCLINATION": 43.0001, "RA_OF_ASC_NODE": 34.7236, "ARG_OF_PERICENTER": 267.5896, "MEAN_ANOMALY": 37.7759, "EPHEMERIS_TYPE": 0, "CLASSIFICATION_TYPE": "U", "NORAD_CAT_ID": 66865, "ELEMENT_SET_NO": 999, "REV_AT_EPOCH": 372, "BSTAR": 0.00073625748, "MEAN_MOTION_DOT": 0.00042988, "MEAN_MOTION_DDOT": 0}, "tle": {"line1": "1 66865U 25281T   25361.25002315  .00042988  00000+0  73626-3 0  9991", "line2": "2 66865  43.0001  34.7236 0001159 267.5896  37.7759 15.50514015  3722"}}, "geometry": {"type": "Point", "coordinates": [150.25530794485252, 39.55300081574302]}}, {"type": "Feature", "properties": {"norad_id": 66866, "name": "STARLINK-36126", "group": "last-30-days", "lat": 38.92662108031573, "lon": 152.57979254343627, "alt_km": 409.4093834722453, "timestamp": "2025-12-27T14:26:29.243907+00:00", "meta": {"OBJECT_NAME": "STARLINK-36126", "OBJECT_ID": "2025-281U", "EPOCH": "2025-12-27T06:00:02.000160", "MEAN_MOTION": 15.50715047, "ECCENTRICITY": 0.00010355, "INCLINATION": 43, "RA_OF_ASC_NODE": 34.7191, "ARG_OF_PERICENTER": 246.7356, "MEAN_ANOMALY": 60.4044, "EPHEMERIS_TYPE": 0, "CLASSIFICATION_TYPE": "U", "NORAD_CAT_ID": 66866, "ELEMENT_SET_NO": 999, "REV_AT_EPOCH": 375, "BSTAR": -0.0038129011, "MEAN_MOTION_DOT": -0.00218937, "MEAN_MOTION_DDOT": 0}, "tle": {"line1": "1 66866U 25281U   25361.25002315 -.00218937  00000+0 -38129-2 0  9991", "line2": "2 66866  43.0000  34.7191 0001035 246.7356  60.4044 15.50715047  3756"}}, "geometry": {"type": "Point", "coordinates": [152.57979254343627, 38.92662108031573]}}, {"type": "Feature", "properties": {"norad_id": 66867, "name": "STARLINK-36101", "group": "last-30-days", "lat": 38.24994621635773, "lon": 154.87781931653004, "alt_km": 409.43784761744246, "timestamp": "2025-12-27T14:26:29.243919+00:00", "meta": {"OBJECT_NAME": "STARLINK-36101", "OBJECT_ID": "2025-281V", "EPOCH": "2025-12-27T06:00:02.000160", "MEAN_MOTION": 15.5058921, "ECCENTRICITY": 9.452e-05, "INCLINATION": 43, "RA_OF_ASC_NODE": 34.7137, "ARG_OF_PERICENTER": 239.979, "MEAN_ANOMALY": 69.1719, "EPHEMERIS_TYPE": 0, "CLASSIFICATION_TYPE": "U", "NORAD_CAT_ID": 66867, "ELEMENT_SET_NO": 999, "REV_AT_EPOCH": 355, "BSTAR": -0.0011480221, "MEAN_MOTION_DOT": -0.00067137, "MEAN_MOTION_DDOT": 0}, "tle": {"line1": "1 66867U 25281V   25361.25002315 -.00067137  00000+0 -11480-2 0  9997", "line2": "2 66867  43.0000  34.7137 0000945 239.9790  69.1719 15.50589210  3556"}}, "geometry": {"type": "Point", "coordinates": [154.87781931653004, 38.24994621635773]}}, {"type": "Feature", "properties": {"norad_id": 66868, "name": "STARLINK-36108", "group": "last-30-days", "lat": 37.52974325891832, "lon": 157.1300476541581, "alt_km": 409.77468868732194, "timestamp": "2025-12-27T14:26:29.243929+00:00", "meta": {"OBJECT_NAME": "STARLINK-36108", "OBJECT_ID": "2025-281W", "EPOCH": "2025-12-27T06:00:02.000160", "MEAN_MOTION": 15.5059305, "ECCENTRICITY": 0.00010175, "INCLINATION": 43, "RA_OF_ASC_NODE": 34.7085, "ARG_OF_PERICENTER": 266.3541, "MEAN_ANOMALY": 44.7103, "EPHEMERIS_TYPE": 0, "CLASSIFICATION_TYPE": "U", "NORAD_CAT_ID": 66868, "ELEMENT_SET_NO": 999, "REV_AT_EPOCH": 355, "BSTAR": -0.0012425261, "MEAN_MOTION_DOT": -0.00072596, "MEAN_MOTION_DDOT": 0}, "tle": {"line1": "1 66868U 25281W   25361.25002315 -.00072596  00000+0 -12425-2 0  9993", "line2": "2 66868  43.0000  34.7085 0001017 266.3541  44.7103 15.50593050  3551"}}, "geometry": {"type": "Point", "coordinates": [157.1300476541581, 37.52974325891832]}}, {"type": "Feature", "properties": {"norad_id": 66869, "name": "STARLINK-36092", "group": "last-30-days", "lat": 36.77987936445551, "lon": 159.30489745814734, "alt_km": 409.707599429792, "timestamp": "2025-12-27T14:26:29.243941+00:00", "meta": {"OBJECT_NAME": "STARLINK-36092", "OBJECT_ID": "2025-281X", "EPOCH": "2025-12-27T06:00:02.000160", "MEAN_MOTION": 15.50705155, "ECCENTRICITY": 0.00011263, "INCLINATION": 43.0001, "RA_OF_ASC_NODE": 34.7052, "ARG_OF_PERICENTER": 248.7249, "MEAN_ANOMALY": 64.1408, "EPHEMERIS_TYPE": 0, "CLASSIFICATION_TYPE": "U", "NORAD_CAT_ID": 66869, "ELEMENT_SET_NO": 999, "REV_AT_EPOCH": 375, "BSTAR": -0.0031764181, "MEAN_MOTION_DOT": -0.0018321, "MEAN_MOTION_DDOT": 0}, "tle": {"line1": "1 66869U 25281X   25361.25002315 -.00183210  00000+0 -31764-2 0  9997", "line2": "2 66869  43.0001  34.7052 0001126 248.7249  64.1408 15.50705155  3754"}}, "geometry": {"type": "Point", "coordinates": [159.30489745814734, 36.77987936445551]}}]}